{
      "data":[
        { "code":"","place_name":"Andhra Pradesh", "country_iso2": "IN"},
        {"code":"","place_name":"Arunachal Pradesh","country_iso2":"IN"},
        {"code":"","place_name":"Assam","country_iso2":"IN"},
        {"code":"","place_name":"Bihar","country_iso2":"IN"},
        {"code":"","place_name":"Chhattisgarh","country_iso2":"IN"},
        {"code":"","place_name":"Goa","country_iso2":"IN"},
        {"code":"","place_name":"Gujarat","country_iso2":"IN"},
        {"code":"","place_name":"Haryana","country_iso2":"IN"},
        {"code":"","place_name":"Himachal Pradesh","country_iso2":"IN"},
        {"code":"","place_name":"Jammu and Kashmir","country_iso2":"IN"},
        {"code":"","place_name":"Jharkhand","country_iso2":"IN"},
        {"code":"","place_name":"Karnataka","country_iso2":"IN"},
        {"code":"","place_name":"Kerala","country_iso2":"IN"},
        {"code":"","place_name":"Madhya Pradesh","country_iso2":"IN"},
        {"code":"","place_name":"Maharashtra","country_iso2":"IN"},
        {"code":"","place_name":"Manipur","country_iso2":"IN"},
        {"code":"","place_name":"Meghalaya","country_iso2":"IN"},
        {"code":"","place_name":"Mizoram","country_iso2":"IN"},
        {"code":"","place_name":"Nagaland","country_iso2":"IN"},
        {"code":"","place_name":"Odisha","country_iso2":"IN"},
        {"code":"","place_name":"Punjab","country_iso2":"IN"},
        {"code":"","place_name":"Rajasthan","country_iso2":"IN"},
        {"code":"","place_name":"Sikkim","country_iso2":"IN"},
        {"code":"","place_name":"Tamil Nadu","country_iso2":"IN"},
        {"code":"","place_name":"Telangana","country_iso2":"IN"},
        {"code":"","place_name":"Tripura","country_iso2":"IN"},
        {"code":"","place_name":"Uttar Pradesh","country_iso2":"IN"},
        {"code":"","place_name":"Uttarakhand","country_iso2":"IN"},
        {"code":"","place_name":"West Bengal","country_iso2":"IN"},
        {"code":"","place_name":"Andaman and Nicobar Islands","country_iso2":"IN"},
        {"code":"","place_name":"Chandigarh","country_iso2":"IN"},
        {"code":"","place_name":"Dadra and Nagar Haveli","country_iso2":"IN"},
        {"code":"","place_name":"Daman and Diu","country_iso2":"IN"},
        {"code":"","place_name":"Lakshadweep","country_iso2":"IN"},
        {"code":"","place_name":"National Capital Territory of Delhi","country_iso2":"IN"},
        {"code":"","place_name":"Puducherry","country_iso2":"IN"}
      
      ]

}
